0 FENGYUN 1C DEB
1 30048U 99025NZ  13282.44373352  .00000187  00000-0  19871-3 0   814
2 30048 098.6324 093.7492 0190638 335.4018 050.7633 13.77626866338666
0 FENGYUN 1C DEB
1 30048U 99025NZ  13283.45894293  .00000180  00000-0  19290-3 0   827
2 30048 098.6323 094.6730 0190607 332.6604 045.6587 13.77627445338807
0 FENGYUN 1C DEB
1 30048U 99025NZ  13285.95820049  .00000170  00000-0  18414-3 0   840
2 30048 098.6323 096.9473 0190543 325.9053 200.6515 13.77628350339146
0 FENGYUN 1C DEB
1 30048U 99025NZ  13286.97505424  .00000179  00000-0  19186-3 0   857
2 30048 098.6323 097.8726 0190543 323.1587 203.7082 13.77628844339285
0 FENGYUN 1C DEB
1 30048U 99025NZ  13288.47846007  .00000217  00000-0  22542-3 0   863
2 30048 098.6325 099.2406 0190522 319.0955 099.8119 13.77629780339496
0 FENGYUN 1C DEB
1 30048U 99025NZ  13290.01581013  .00000191  00000-0  20259-3 0   874
2 30048 098.6327 100.6396 0190456 314.9347 164.2728 13.77630426339704
0 FENGYUN 1C DEB
1 30048U 99025NZ  13291.45485558  .00000195  00000-0  20637-3 0   885
2 30048 098.6329 101.9491 0190434 311.0421 101.1951 13.77631066339904
0 FENGYUN 1C DEB
1 30048U 99025NZ  13292.47203083  .00000215  00000-0  22348-3 0   894
2 30048 098.6331 102.8747 0190445 308.2934 105.8587 13.77631564340046
0 FENGYUN 1C DEB
1 30048U 99025NZ  13293.94538017  .00000250  00000-0  25416-3 0   905
2 30048 098.6332 104.2154 0190424 304.3076 212.9179 13.77632289340240
0 FENGYUN 1C DEB
1 30048U 99025NZ  13295.44928250  .00000264  00000-0  26693-3 0   918
2 30048 098.6330 105.5841 0190407 300.2400 111.5066 13.77633121340450
